CCSDS_OMM_VERS = 2.0
CREATION_DATE  = 
ORIGINATOR     = 

OBJECT_NAME    = STARLINK-36353
OBJECT_ID      = 2026-032Z
CENTER_NAME    = EARTH
REF_FRAME      = TEME
TIME_SYSTEM    = UTC
MEAN_ELEMENT_THEORY = SGP/SGP4

EPOCH          = 2026-03-01T02:10:21.728064
MEAN_MOTION    = 15.80572231
ECCENTRICITY   = .0000974
INCLINATION    = 97.2812
RA_OF_ASC_NODE = 246.2097
ARG_OF_PERICENTER = 46.4351
MEAN_ANOMALY   = 313.6998

EPHEMERIS_TYPE = 0
CLASSIFICATION_TYPE = U
NORAD_CAT_ID   = 67820
ELEMENT_SET_NO = 999
REV_AT_EPOCH   = 343
BSTAR          = -.12138E-2
MEAN_MOTION_DOT = -.22425E-2
MEAN_MOTION_DDOT = 0

CCSDS_OMM_VERS = 2.0
CREATION_DATE  = 
ORIGINATOR     = 

OBJECT_NAME    = STARLINK-36644
OBJECT_ID      = 2026-033A
CENTER_NAME    = EARTH
REF_FRAME      = TEME
TIME_SYSTEM    = UTC
MEAN_ELEMENT_THEORY = SGP/SGP4

EPOCH          = 2026-03-01T02:35:48.630336
MEAN_MOTION    = 15.82084771
ECCENTRICITY   = .0001335
INCLINATION    = 42.9977
RA_OF_ASC_NODE = 324.1179
ARG_OF_PERICENTER = 271.0468
MEAN_ANOMALY   = 89.0251

EPHEMERIS_TYPE = 0
CLASSIFICATION_TYPE = U
NORAD_CAT_ID   = 67821
ELEMENT_SET_NO = 999
REV_AT_EPOCH   = 326
BSTAR          = .11649E-2
MEAN_MOTION_DOT = .252869E-2
MEAN_MOTION_DDOT = 0

CCSDS_OMM_VERS = 2.0
CREATION_DATE  = 
ORIGINATOR     = 

OBJECT_NAME    = STARLINK-36643
OBJECT_ID      = 2026-033B
CENTER_NAME    = EARTH
REF_FRAME      = TEME
TIME_SYSTEM    = UTC
MEAN_ELEMENT_THEORY = SGP/SGP4

EPOCH          = 2026-03-01T02:34:43.566816
MEAN_MOTION    = 15.82107493
ECCENTRICITY   = .0002099
INCLINATION    = 42.9978
RA_OF_ASC_NODE = 324.1113
ARG_OF_PERICENTER = 261.3846
MEAN_ANOMALY   = 98.6788

EPHEMERIS_TYPE = 0
CLASSIFICATION_TYPE = U
NORAD_CAT_ID   = 67822
ELEMENT_SET_NO = 999
REV_AT_EPOCH   = 326
BSTAR          = .13205E-2
MEAN_MOTION_DOT = .288215E-2
MEAN_MOTION_DDOT = 0

CCSDS_OMM_VERS = 2.0
CREATION_DATE  = 
ORIGINATOR     = 

OBJECT_NAME    = STARLINK-36646
OBJECT_ID      = 2026-033C
CENTER_NAME    = EARTH
REF_FRAME      = TEME
TIME_SYSTEM    = UTC
MEAN_ELEMENT_THEORY = SGP/SGP4

EPOCH          = 2026-03-01T02:31:27.160608
MEAN_MOTION    = 15.85828201
ECCENTRICITY   = .0026404
INCLINATION    = 42.9972
RA_OF_ASC_NODE = 324.0954
ARG_OF_PERICENTER = 272.5606
MEAN_ANOMALY   = 87.2245

EPHEMERIS_TYPE = 0
CLASSIFICATION_TYPE = U
NORAD_CAT_ID   = 67823
ELEMENT_SET_NO = 999
REV_AT_EPOCH   = 326
BSTAR          = .5693E-2
MEAN_MOTION_DOT = .1459689E-1
MEAN_MOTION_DDOT = .93727E-3

CCSDS_OMM_VERS = 2.0
CREATION_DATE  = 
ORIGINATOR     = 

OBJECT_NAME    = STARLINK-36647
OBJECT_ID      = 2026-033D
CENTER_NAME    = EARTH
REF_FRAME      = TEME
TIME_SYSTEM    = UTC
MEAN_ELEMENT_THEORY = SGP/SGP4

EPOCH          = 2026-03-01T02:32:34.122336
MEAN_MOTION    = 15.82087256
ECCENTRICITY   = .0002244
INCLINATION    = 42.9978
RA_OF_ASC_NODE = 324.0990
ARG_OF_PERICENTER = 257.2729
MEAN_ANOMALY   = 102.7892

EPHEMERIS_TYPE = 0
CLASSIFICATION_TYPE = U
NORAD_CAT_ID   = 67824
ELEMENT_SET_NO = 999
REV_AT_EPOCH   = 326
BSTAR          = .10631E-2
MEAN_MOTION_DOT = .230148E-2
MEAN_MOTION_DDOT = 0

CCSDS_OMM_VERS = 2.0
CREATION_DATE  = 
ORIGINATOR     = 

OBJECT_NAME    = STARLINK-36648
OBJECT_ID      = 2026-033E
CENTER_NAME    = EARTH
REF_FRAME      = TEME
TIME_SYSTEM    = UTC
MEAN_ELEMENT_THEORY = SGP/SGP4

EPOCH          = 2026-03-01T02:31:29.371584
MEAN_MOTION    = 15.82097501
ECCENTRICITY   = .0002176
INCLINATION    = 42.9976
RA_OF_ASC_NODE = 324.0931
ARG_OF_PERICENTER = 258.3243
MEAN_ANOMALY   = 101.7384

EPHEMERIS_TYPE = 0
CLASSIFICATION_TYPE = U
NORAD_CAT_ID   = 67825
ELEMENT_SET_NO = 999
REV_AT_EPOCH   = 326
BSTAR          = .12212E-2
MEAN_MOTION_DOT = .265678E-2
MEAN_MOTION_DDOT = 0

CCSDS_OMM_VERS = 2.0
CREATION_DATE  = 
ORIGINATOR     = 

OBJECT_NAME    = STARLINK-35865
OBJECT_ID      = 2026-033F
CENTER_NAME    = EARTH
REF_FRAME      = TEME
TIME_SYSTEM    = UTC
MEAN_ELEMENT_THEORY = SGP/SGP4

EPOCH          = 2026-03-01T02:30:25.087392
MEAN_MOTION    = 15.82098320
ECCENTRICITY   = .0001672
INCLINATION    = 42.9987
RA_OF_ASC_NODE = 324.0860
ARG_OF_PERICENTER = 272.3078
MEAN_ANOMALY   = 87.7603

EPHEMERIS_TYPE = 0
CLASSIFICATION_TYPE = U
NORAD_CAT_ID   = 67826
ELEMENT_SET_NO = 999
REV_AT_EPOCH   = 326
BSTAR          = .18464E-2
MEAN_MOTION_DOT = .408748E-2
MEAN_MOTION_DDOT = 0

CCSDS_OMM_VERS = 2.0
CREATION_DATE  = 
ORIGINATOR     = 

OBJECT_NAME    = STARLINK-36289
OBJECT_ID      = 2026-033G
CENTER_NAME    = EARTH
REF_FRAME      = TEME
TIME_SYSTEM    = UTC
MEAN_ELEMENT_THEORY = SGP/SGP4

EPOCH          = 2026-03-01T02:29:20.071392
MEAN_MOTION    = 15.82052452
ECCENTRICITY   = .0000962
INCLINATION    = 42.9976
RA_OF_ASC_NODE = 324.0805
ARG_OF_PERICENTER = 245.3558
MEAN_ANOMALY   = 114.7214

EPHEMERIS_TYPE = 0
CLASSIFICATION_TYPE = U
NORAD_CAT_ID   = 67827
ELEMENT_SET_NO = 999
REV_AT_EPOCH   = 326
BSTAR          = .13267E-2
MEAN_MOTION_DOT = .288838E-2
MEAN_MOTION_DDOT = 0

CCSDS_OMM_VERS = 2.0
CREATION_DATE  = 
ORIGINATOR     = 

OBJECT_NAME    = STARLINK-36670
OBJECT_ID      = 2026-033H
CENTER_NAME    = EARTH
REF_FRAME      = TEME
TIME_SYSTEM    = UTC
MEAN_ELEMENT_THEORY = SGP/SGP4

EPOCH          = 2026-03-01T02:28:15.166848
MEAN_MOTION    = 15.82056737
ECCENTRICITY   = .0001987
INCLINATION    = 42.9980
RA_OF_ASC_NODE = 324.0739
ARG_OF_PERICENTER = 276.8682
MEAN_ANOMALY   = 83.1964

EPHEMERIS_TYPE = 0
CLASSIFICATION_TYPE = U
NORAD_CAT_ID   = 67828
ELEMENT_SET_NO = 999
REV_AT_EPOCH   = 326
BSTAR          = .14416E-2
MEAN_MOTION_DOT = .31492E-2
MEAN_MOTION_DDOT = 0

CCSDS_OMM_VERS = 2.0
CREATION_DATE  = 
ORIGINATOR     = 

OBJECT_NAME    = STARLINK-36144
OBJECT_ID      = 2026-033J
CENTER_NAME    = EARTH
REF_FRAME      = TEME
TIME_SYSTEM    = UTC
MEAN_ELEMENT_THEORY = SGP/SGP4

EPOCH          = 2026-03-01T02:27:10.618272
MEAN_MOTION    = 15.82137722
ECCENTRICITY   = .0001869
INCLINATION    = 42.9989
RA_OF_ASC_NODE = 324.0680
ARG_OF_PERICENTER = 268.2659
MEAN_ANOMALY   = 91.7999

EPHEMERIS_TYPE = 0
CLASSIFICATION_TYPE = U
NORAD_CAT_ID   = 67829
ELEMENT_SET_NO = 999
REV_AT_EPOCH   = 326
BSTAR          = .21327E-2
MEAN_MOTION_DOT = .476882E-2
MEAN_MOTION_DDOT = 0

CCSDS_OMM_VERS = 2.0
CREATION_DATE  = 
ORIGINATOR     = 

OBJECT_NAME    = STARLINK-36611
OBJECT_ID      = 2026-033K
CENTER_NAME    = EARTH
REF_FRAME      = TEME
TIME_SYSTEM    = UTC
MEAN_ELEMENT_THEORY = SGP/SGP4

EPOCH          = 2026-03-01T02:26:05.629056
MEAN_MOTION    = 15.82094641
ECCENTRICITY   = .0002094
INCLINATION    = 42.9977
RA_OF_ASC_NODE = 324.0615
ARG_OF_PERICENTER = 237.4135
MEAN_ANOMALY   = 122.6535

EPHEMERIS_TYPE = 0
CLASSIFICATION_TYPE = U
NORAD_CAT_ID   = 67830
ELEMENT_SET_NO = 999
REV_AT_EPOCH   = 326
BSTAR          = .18386E-2
MEAN_MOTION_DOT = .406861E-2
MEAN_MOTION_DDOT = 0

CCSDS_OMM_VERS = 2.0
CREATION_DATE  = 
ORIGINATOR     = 

OBJECT_NAME    = STARLINK-36661
OBJECT_ID      = 2026-033L
CENTER_NAME    = EARTH
REF_FRAME      = TEME
TIME_SYSTEM    = UTC
MEAN_ELEMENT_THEORY = SGP/SGP4

EPOCH          = 2026-03-01T02:25:00.908544
MEAN_MOTION    = 15.82008511
ECCENTRICITY   = .0001659
INCLINATION    = 42.9984
RA_OF_ASC_NODE = 324.0550
ARG_OF_PERICENTER = 251.0281
MEAN_ANOMALY   = 109.0411

EPHEMERIS_TYPE = 0
CLASSIFICATION_TYPE = U
NORAD_CAT_ID   = 67831
ELEMENT_SET_NO = 999
REV_AT_EPOCH   = 326
BSTAR          = .10638E-2
MEAN_MOTION_DOT = .229427E-2
MEAN_MOTION_DDOT = 0

CCSDS_OMM_VERS = 2.0
CREATION_DATE  = 
ORIGINATOR     = 

OBJECT_NAME    = STARLINK-36662
OBJECT_ID      = 2026-033M
CENTER_NAME    = EARTH
REF_FRAME      = TEME
TIME_SYSTEM    = UTC
MEAN_ELEMENT_THEORY = SGP/SGP4

EPOCH          = 2026-03-01T02:45:23.572224
MEAN_MOTION    = 15.85935045
ECCENTRICITY   = .0002391
INCLINATION    = 42.9964
RA_OF_ASC_NODE = 323.2628
ARG_OF_PERICENTER = 273.9136
MEAN_ANOMALY   = 86.1464

EPHEMERIS_TYPE = 0
CLASSIFICATION_TYPE = U
NORAD_CAT_ID   = 67832
ELEMENT_SET_NO = 999
REV_AT_EPOCH   = 327
BSTAR          = -.17365E-2
MEAN_MOTION_DOT = -.421178E-2
MEAN_MOTION_DDOT = 0

CCSDS_OMM_VERS = 2.0
CREATION_DATE  = 
ORIGINATOR     = 

OBJECT_NAME    = STARLINK-36659
OBJECT_ID      = 2026-033N
CENTER_NAME    = EARTH
REF_FRAME      = TEME
TIME_SYSTEM    = UTC
MEAN_ELEMENT_THEORY = SGP/SGP4

EPOCH          = 2026-03-01T02:23:55.958208
MEAN_MOTION    = 15.82118835
ECCENTRICITY   = .000204
INCLINATION    = 42.9977
RA_OF_ASC_NODE = 324.0494
ARG_OF_PERICENTER = 254.7817
MEAN_ANOMALY   = 105.2829

EPHEMERIS_TYPE = 0
CLASSIFICATION_TYPE = U
NORAD_CAT_ID   = 67833
ELEMENT_SET_NO = 999
REV_AT_EPOCH   = 326
BSTAR          = .13666E-2
MEAN_MOTION_DOT = .298808E-2
MEAN_MOTION_DDOT = 0

CCSDS_OMM_VERS = 2.0
CREATION_DATE  = 
ORIGINATOR     = 

OBJECT_NAME    = STARLINK-36655
OBJECT_ID      = 2026-033P
CENTER_NAME    = EARTH
REF_FRAME      = TEME
TIME_SYSTEM    = UTC
MEAN_ELEMENT_THEORY = SGP/SGP4

EPOCH          = 2026-03-01T02:22:51.557376
MEAN_MOTION    = 15.82077465
ECCENTRICITY   = .0001836
INCLINATION    = 42.9982
RA_OF_ASC_NODE = 324.0430
ARG_OF_PERICENTER = 270.7733
MEAN_ANOMALY   = 89.2928

EPHEMERIS_TYPE = 0
CLASSIFICATION_TYPE = U
NORAD_CAT_ID   = 67834
ELEMENT_SET_NO = 999
REV_AT_EPOCH   = 326
BSTAR          = .11006E-2
MEAN_MOTION_DOT = .238389E-2
MEAN_MOTION_DDOT = 0

